NAVSTAR 77 (USA 289)    
1 43873U 18109A   24291.98297025  .00000056  00000+0  00000+0 0  9993
2 43873  55.3473 116.1736 0031313 191.8250 340.2815  2.00560662 42899
